OCO 2                   
1 40059U 14035A   26095.29688411  .00000819  00000+0  19178-3 0  9998
2 40059  98.1967  37.7228 0001583  90.1220 270.0160 14.57128422625432
BRITE-PL2 (HEWELIUSZ)   
1 40119U 14049B   26095.25797631  .00003922  00000+0  36970-3 0  9998
2 40119  97.9006 206.7466 0013771 358.1861   1.9307 14.94328731630551
MMS 1                   
1 40482U 15011A   26095.33335648 -.00001288  00000+0  00000+0 0  9991
2 40482  71.1408 349.8048 8383489 165.8513  67.0423  0.28341977  1306
MMS 2                   
1 40483U 15011B   26095.33335648 -.00001288  00000+0  00000+0 0  9992
2 40483  71.1410 349.8070 8384236 165.8573  67.0272  0.28341994  1303
MMS 3                   
1 40484U 15011C   26095.33335648 -.00001288  00000+0  00000+0 0  9993
2 40484  71.1436 349.8116 8383489 165.8516  67.0319  0.28341950  1303
MMS 4                   
1 40485U 15011D   26095.33335648 -.00001288  00000+0  00000+0 0  9994
2 40485  71.1413 349.8068 8383046 165.8603  67.0135  0.28340799  1307
ASTROSAT                
1 40930U 15052A   26094.42370633  .00002628  00000+0  23869-3 0  9996
2 40930   5.9978 326.2599 0007504  58.6972 301.3890 14.82373506568861
DAMPE                   
1 41173U 15078A   26095.27852196  .00003712  00000+0  12792-3 0  9995
2 41173  97.4579 100.3919 0011552 343.3224  16.7635 15.30604076573394
PISAT                   
1 41784U 16059B   26094.98474149  .00001610  00000+0  28165-3 0  9994
2 41784  97.8193  98.5891 0030564  79.9645 280.5007 14.68845502508997
HXMT (HUIYAN)           
1 42758U 17034A   26095.30129144  .00009040  00000+0  44454-3 0  9993
2 42758  43.0142 228.6834 0030810  41.1588 319.1577 15.17831714486586
FLYING LAPTOP           
1 42831U 17042G   26095.31726714  .00003341  00000+0  26723-3 0  9998
2 42831  97.4366 253.8228 0019706  12.7860 347.3860 15.00706187475521
ZHANGHENG 1-01 (CSES-1) 
1 43194U 18015C   26095.30345759  .00011804  00000+0  53316-3 0  9998
2 43194  97.6802 259.5362 0018743 145.7407 214.5041 15.20972006453560
SALSAT                  
1 46495U 20068K   26095.25293326  .00010667  00000+0  38421-3 0  9998
2 46495  97.8868  93.9405 0009584 187.7921 172.3170 15.28731219304217
IXPE                    
1 49954U 21121A   26095.25002315  .00016091  00000+0  91455-3 0  9991
2 49954   0.2279 148.7605 0007569  56.3230 135.2764 15.09583297  5732
