[{"OBJECT_NAME":"OCO 2","OBJECT_ID":"2014-035A","EPOCH":"2026-04-05T07:07:30.787104","MEAN_MOTION":14.57128422,"ECCENTRICITY":0.00015836,"INCLINATION":98.1967,"RA_OF_ASC_NODE":37.7228,"ARG_OF_PERICENTER":90.122,"MEAN_ANOMALY":270.016,"EPHEMERIS_TYPE":0,"CLASSIFICATION_TYPE":"U","NORAD_CAT_ID":40059,"ELEMENT_SET_NO":999,"REV_AT_EPOCH":62543,"BSTAR":0.00019177931,"MEAN_MOTION_DOT":8.19e-6,"MEAN_MOTION_DDOT":0},{"OBJECT_NAME":"BRITE-PL2 (HEWELIUSZ)","OBJECT_ID":"2014-049B","EPOCH":"2026-04-05T06:11:29.153184","MEAN_MOTION":14.94328731,"ECCENTRICITY":0.00137718,"INCLINATION":97.9006,"RA_OF_ASC_NODE":206.7466,"ARG_OF_PERICENTER":358.1861,"MEAN_ANOMALY":1.9307,"EPHEMERIS_TYPE":0,"CLASSIFICATION_TYPE":"U","NORAD_CAT_ID":40119,"ELEMENT_SET_NO":999,"REV_AT_EPOCH":63055,"BSTAR":0.0003696998,"MEAN_MOTION_DOT":3.922e-5,"MEAN_MOTION_DDOT":0},{"OBJECT_NAME":"MMS 1","OBJECT_ID":"2015-011A","EPOCH":"2026-04-05T08:00:01.999872","MEAN_MOTION":0.28341977,"ECCENTRICITY":0.83834891,"INCLINATION":71.1408,"RA_OF_ASC_NODE":349.8048,"ARG_OF_PERICENTER":165.8513,"MEAN_ANOMALY":67.0423,"EPHEMERIS_TYPE":0,"CLASSIFICATION_TYPE":"U","NORAD_CAT_ID":40482,"ELEMENT_SET_NO":999,"REV_AT_EPOCH":130,"BSTAR":0,"MEAN_MOTION_DOT":-1.288e-5,"MEAN_MOTION_DDOT":0},{"OBJECT_NAME":"MMS 2","OBJECT_ID":"2015-011B","EPOCH":"2026-04-05T08:00:01.999872","MEAN_MOTION":0.28341994,"ECCENTRICITY":0.83842363,"INCLINATION":71.141,"RA_OF_ASC_NODE":349.807,"ARG_OF_PERICENTER":165.8573,"MEAN_ANOMALY":67.0272,"EPHEMERIS_TYPE":0,"CLASSIFICATION_TYPE":"U","NORAD_CAT_ID":40483,"ELEMENT_SET_NO":999,"REV_AT_EPOCH":130,"BSTAR":0,"MEAN_MOTION_DOT":-1.288e-5,"MEAN_MOTION_DDOT":0},{"OBJECT_NAME":"MMS 3","OBJECT_ID":"2015-011C","EPOCH":"2026-04-05T08:00:01.999872","MEAN_MOTION":0.2834195,"ECCENTRICITY":0.83834896,"INCLINATION":71.1436,"RA_OF_ASC_NODE":349.8116,"ARG_OF_PERICENTER":165.8516,"MEAN_ANOMALY":67.0319,"EPHEMERIS_TYPE":0,"CLASSIFICATION_TYPE":"U","NORAD_CAT_ID":40484,"ELEMENT_SET_NO":999,"REV_AT_EPOCH":130,"BSTAR":0,"MEAN_MOTION_DOT":-1.288e-5,"MEAN_MOTION_DDOT":0},{"OBJECT_NAME":"MMS 4","OBJECT_ID":"2015-011D","EPOCH":"2026-04-05T08:00:01.999872","MEAN_MOTION":0.28340799,"ECCENTRICITY":0.83830461,"INCLINATION":71.1413,"RA_OF_ASC_NODE":349.8068,"ARG_OF_PERICENTER":165.8603,"MEAN_ANOMALY":67.0135,"EPHEMERIS_TYPE":0,"CLASSIFICATION_TYPE":"U","NORAD_CAT_ID":40485,"ELEMENT_SET_NO":999,"REV_AT_EPOCH":130,"BSTAR":0,"MEAN_MOTION_DOT":-1.288e-5,"MEAN_MOTION_DDOT":0},{"OBJECT_NAME":"ASTROSAT","OBJECT_ID":"2015-052A","EPOCH":"2026-04-04T10:10:08.226912","MEAN_MOTION":14.82373506,"ECCENTRICITY":0.00075048,"INCLINATION":5.9978,"RA_OF_ASC_NODE":326.2599,"ARG_OF_PERICENTER":58.6972,"MEAN_ANOMALY":301.389,"EPHEMERIS_TYPE":0,"CLASSIFICATION_TYPE":"U","NORAD_CAT_ID":40930,"ELEMENT_SET_NO":999,"REV_AT_EPOCH":56886,"BSTAR":0.00023869134,"MEAN_MOTION_DOT":2.628e-5,"MEAN_MOTION_DDOT":0},{"OBJECT_NAME":"DAMPE","OBJECT_ID":"2015-078A","EPOCH":"2026-04-05T06:41:04.297344","MEAN_MOTION":15.30604076,"ECCENTRICITY":0.00115529,"INCLINATION":97.4579,"RA_OF_ASC_NODE":100.3919,"ARG_OF_PERICENTER":343.3224,"MEAN_ANOMALY":16.7635,"EPHEMERIS_TYPE":0,"CLASSIFICATION_TYPE":"U","NORAD_CAT_ID":41173,"ELEMENT_SET_NO":999,"REV_AT_EPOCH":57339,"BSTAR":0.00012791605,"MEAN_MOTION_DOT":3.712e-5,"MEAN_MOTION_DDOT":0},{"OBJECT_NAME":"PISAT","OBJECT_ID":"2016-059B","EPOCH":"2026-04-04T23:38:01.664736","MEAN_MOTION":14.68845502,"ECCENTRICITY":0.00305642,"INCLINATION":97.8193,"RA_OF_ASC_NODE":98.5891,"ARG_OF_PERICENTER":79.9645,"MEAN_ANOMALY":280.5007,"EPHEMERIS_TYPE":0,"CLASSIFICATION_TYPE":"U","NORAD_CAT_ID":41784,"ELEMENT_SET_NO":999,"REV_AT_EPOCH":50899,"BSTAR":0.00028165408,"MEAN_MOTION_DOT":1.61e-5,"MEAN_MOTION_DDOT":0},{"OBJECT_NAME":"HXMT (HUIYAN)","OBJECT_ID":"2017-034A","EPOCH":"2026-04-05T07:13:51.580416","MEAN_MOTION":15.17831714,"ECCENTRICITY":0.00308105,"INCLINATION":43.0142,"RA_OF_ASC_NODE":228.6834,"ARG_OF_PERICENTER":41.1588,"MEAN_ANOMALY":319.1577,"EPHEMERIS_TYPE":0,"CLASSIFICATION_TYPE":"U","NORAD_CAT_ID":42758,"ELEMENT_SET_NO":999,"REV_AT_EPOCH":48658,"BSTAR":0.00044453684,"MEAN_MOTION_DOT":9.04e-5,"MEAN_MOTION_DDOT":0},{"OBJECT_NAME":"FLYING LAPTOP","OBJECT_ID":"2017-042G","EPOCH":"2026-04-05T07:36:51.880896","MEAN_MOTION":15.00706187,"ECCENTRICITY":0.00197062,"INCLINATION":97.4366,"RA_OF_ASC_NODE":253.8228,"ARG_OF_PERICENTER":12.786,"MEAN_ANOMALY":347.386,"EPHEMERIS_TYPE":0,"CLASSIFICATION_TYPE":"U","NORAD_CAT_ID":42831,"ELEMENT_SET_NO":999,"REV_AT_EPOCH":47552,"BSTAR":0.00026723356,"MEAN_MOTION_DOT":3.341e-5,"MEAN_MOTION_DDOT":0},{"OBJECT_NAME":"ZHANGHENG 1-01 (CSES-1)","OBJECT_ID":"2018-015C","EPOCH":"2026-04-05T07:16:58.735776","MEAN_MOTION":15.20972006,"ECCENTRICITY":0.00187434,"INCLINATION":97.6802,"RA_OF_ASC_NODE":259.5362,"ARG_OF_PERICENTER":145.7407,"MEAN_ANOMALY":214.5041,"EPHEMERIS_TYPE":0,"CLASSIFICATION_TYPE":"U","NORAD_CAT_ID":43194,"ELEMENT_SET_NO":999,"REV_AT_EPOCH":45356,"BSTAR":0.00053316452,"MEAN_MOTION_DOT":0.00011804,"MEAN_MOTION_DDOT":0},{"OBJECT_NAME":"SALSAT","OBJECT_ID":"2020-068K","EPOCH":"2026-04-05T06:04:13.433664","MEAN_MOTION":15.28731219,"ECCENTRICITY":0.00095847,"INCLINATION":97.8868,"RA_OF_ASC_NODE":93.9405,"ARG_OF_PERICENTER":187.7921,"MEAN_ANOMALY":172.317,"EPHEMERIS_TYPE":0,"CLASSIFICATION_TYPE":"U","NORAD_CAT_ID":46495,"ELEMENT_SET_NO":999,"REV_AT_EPOCH":30421,"BSTAR":0.00038420903,"MEAN_MOTION_DOT":0.00010667,"MEAN_MOTION_DDOT":0},{"OBJECT_NAME":"IXPE","OBJECT_ID":"2021-121A","EPOCH":"2026-04-05T06:00:02.000160","MEAN_MOTION":15.09583297,"ECCENTRICITY":0.00075699,"INCLINATION":0.2279,"RA_OF_ASC_NODE":148.7605,"ARG_OF_PERICENTER":56.323,"MEAN_ANOMALY":135.2764,"EPHEMERIS_TYPE":0,"CLASSIFICATION_TYPE":"U","NORAD_CAT_ID":49954,"ELEMENT_SET_NO":999,"REV_AT_EPOCH":573,"BSTAR":0.00091454992,"MEAN_MOTION_DOT":0.00016091,"MEAN_MOTION_DDOT":0}]
